[{"OBJECT_NAME":"GONETS-M 4","OBJECT_ID":"2012-041D","EPOCH":"2026-03-09T22:27:08.852832","MEAN_MOTION":12.43901069,"ECCENTRICITY":0.00238137,"INCLINATION":82.4792,"RA_OF_ASC_NODE":132.8361,"ARG_OF_PERICENTER":269.0757,"MEAN_ANOMALY":90.7595,"EPHEMERIS_TYPE":0,"CLASSIFICATION_TYPE":"U","NORAD_CAT_ID":38736,"ELEMENT_SET_NO":999,"REV_AT_EPOCH":61061,"BSTAR":0.00043144469,"MEAN_MOTION_DOT":7.0e-7,"MEAN_MOTION_DDOT":0},{"OBJECT_NAME":"DELTA 1 DEB","OBJECT_ID":"1973-086HB","EPOCH":"2026-03-08T03:18:32.262624","MEAN_MOTION":12.55921045,"ECCENTRICITY":0.008883,"INCLINATION":102.2751,"RA_OF_ASC_NODE":301.7798,"ARG_OF_PERICENTER":292.9587,"MEAN_ANOMALY":223.1824,"EPHEMERIS_TYPE":0,"CLASSIFICATION_TYPE":"U","NORAD_CAT_ID":18906,"ELEMENT_SET_NO":999,"REV_AT_EPOCH":75937,"BSTAR":3.2661851e-5,"MEAN_MOTION_DOT":-4.3e-7,"MEAN_MOTION_DDOT":0}]
